{"fetched_at":"2026-07-24T07:06:06.293Z","source":"https://celestrak.org/NORAD/elements/gp.php?GROUP=kuiper&FORMAT=JSON","constellation":"kuiper","records":[{"OBJECT_NAME":"KUIPER-00540","OBJECT_ID":"2026-140T","EPOCH":"2026-07-23T06:45:03.055104","CLASSIFICATION_TYPE":"U","MEAN_MOTION":15.37091015,"ECCENTRICITY":0.0006897,"INCLINATION":51.8789,"RA_OF_ASC_NODE":224.3924,"ARG_OF_PERICENTER":49.2087,"MEAN_ANOMALY":310.9497,"EPHEMERIS_TYPE":0,"NORAD_CAT_ID":69609,"ELEMENT_SET_NO":999,"REV_AT_EPOCH":678,"BSTAR":0.00045445,"MEAN_MOTION_DOT":0.0001641,"MEAN_MOTION_DDOT":0},{"OBJECT_NAME":"KUIPER-00541","OBJECT_ID":"2026-140U","EPOCH":"2026-07-23T07:35:47.976000","CLASSIFICATION_TYPE":"U","MEAN_MOTION":15.38359024,"ECCENTRICITY":0.0009099,"INCLINATION":51.8827,"RA_OF_ASC_NODE":223.8898,"ARG_OF_PERICENTER":342.4177,"MEAN_ANOMALY":17.6494,"EPHEMERIS_TYPE":0,"NORAD_CAT_ID":69610,"ELEMENT_SET_NO":999,"REV_AT_EPOCH":679,"BSTAR":0.00088167,"MEAN_MOTION_DOT":0.00033667,"MEAN_MOTION_DDOT":0},{"OBJECT_NAME":"KUIPER-00542","OBJECT_ID":"2026-140V","EPOCH":"2026-07-23T10:40:52.543776","CLASSIFICATION_TYPE":"U","MEAN_MOTION":15.38443911,"ECCENTRICITY":0.0008233,"INCLINATION":51.877,"RA_OF_ASC_NODE":223.2377,"ARG_OF_PERICENTER":332.96,"MEAN_ANOMALY":27.0958,"EPHEMERIS_TYPE":0,"NORAD_CAT_ID":69611,"ELEMENT_SET_NO":999,"REV_AT_EPOCH":681,"BSTAR":0.00093425,"MEAN_MOTION_DOT":0.000358,"MEAN_MOTION_DDOT":0},{"OBJECT_NAME":"KUIPER-00543","OBJECT_ID":"2026-140W","EPOCH":"2026-07-23T20:55:26.370336","CLASSIFICATION_TYPE":"U","MEAN_MOTION":15.36842447,"ECCENTRICITY":0.0008541,"INCLINATION":51.8766,"RA_OF_ASC_NODE":221.5835,"ARG_OF_PERICENTER":59.2936,"MEAN_ANOMALY":300.8891,"EPHEMERIS_TYPE":0,"NORAD_CAT_ID":69612,"ELEMENT_SET_NO":999,"REV_AT_EPOCH":687,"BSTAR":0.0004566,"MEAN_MOTION_DOT":0.00016361,"MEAN_MOTION_DDOT":0},{"OBJECT_NAME":"KUIPER-00544","OBJECT_ID":"2026-140X","EPOCH":"2026-07-23T13:55:16.555008","CLASSIFICATION_TYPE":"U","MEAN_MOTION":15.38347882,"ECCENTRICITY":0.0007983,"INCLINATION":51.8774,"RA_OF_ASC_NODE":222.6393,"ARG_OF_PERICENTER":355.508,"MEAN_ANOMALY":4.5834,"EPHEMERIS_TYPE":0,"NORAD_CAT_ID":69613,"ELEMENT_SET_NO":999,"REV_AT_EPOCH":683,"BSTAR":0.00013865,"MEAN_MOTION_DOT":0.00004934,"MEAN_MOTION_DDOT":0},{"OBJECT_NAME":"KUIPER-00546","OBJECT_ID":"2026-140Y","EPOCH":"2026-07-23T13:25:24.339072","CLASSIFICATION_TYPE":"U","MEAN_MOTION":15.38116084,"ECCENTRICITY":0.0013728,"INCLINATION":51.8773,"RA_OF_ASC_NODE":222.5066,"ARG_OF_PERICENTER":296.3109,"MEAN_ANOMALY":63.6467,"EPHEMERIS_TYPE":0,"NORAD_CAT_ID":69614,"ELEMENT_SET_NO":999,"REV_AT_EPOCH":683,"BSTAR":0.00081228,"MEAN_MOTION_DOT":0.0003078,"MEAN_MOTION_DDOT":0},{"OBJECT_NAME":"KUIPER-00547","OBJECT_ID":"2026-140Z","EPOCH":"2026-07-23T07:35:22.418016","CLASSIFICATION_TYPE":"U","MEAN_MOTION":15.37954488,"ECCENTRICITY":0.0010394,"INCLINATION":51.88,"RA_OF_ASC_NODE":223.8849,"ARG_OF_PERICENTER":323.8662,"MEAN_ANOMALY":36.1622,"EPHEMERIS_TYPE":0,"NORAD_CAT_ID":69615,"ELEMENT_SET_NO":999,"REV_AT_EPOCH":679,"BSTAR":0.00090676,"MEAN_MOTION_DOT":0.00034195,"MEAN_MOTION_DDOT":0},{"OBJECT_NAME":"KUIPER-00549","OBJECT_ID":"2026-140AA","EPOCH":"2026-07-23T08:08:39.534144","CLASSIFICATION_TYPE":"U","MEAN_MOTION":15.37405715,"ECCENTRICITY":0.0008193,"INCLINATION":51.8773,"RA_OF_ASC_NODE":224.0234,"ARG_OF_PERICENTER":41.4573,"MEAN_ANOMALY":318.7034,"EPHEMERIS_TYPE":0,"NORAD_CAT_ID":69616,"ELEMENT_SET_NO":999,"REV_AT_EPOCH":679,"BSTAR":0.00075822,"MEAN_MOTION_DOT":0.00027978,"MEAN_MOTION_DDOT":0},{"OBJECT_NAME":"KUIPER-00550","OBJECT_ID":"2026-140AB","EPOCH":"2026-07-23T08:30:55.751616","CLASSIFICATION_TYPE":"U","MEAN_MOTION":15.31279121,"ECCENTRICITY":0.0009064,"INCLINATION":51.8774,"RA_OF_ASC_NODE":224.8534,"ARG_OF_PERICENTER":86.7961,"MEAN_ANOMALY":273.406,"EPHEMERIS_TYPE":0,"NORAD_CAT_ID":69617,"ELEMENT_SET_NO":999,"REV_AT_EPOCH":678,"BSTAR":0.0006215,"MEAN_MOTION_DOT":0.00018753,"MEAN_MOTION_DDOT":0},{"OBJECT_NAME":"KUIPER-00551","OBJECT_ID":"2026-140AC","EPOCH":"2026-07-23T05:47:40.814304","CLASSIFICATION_TYPE":"U","MEAN_MOTION":15.38393504,"ECCENTRICITY":0.001229,"INCLINATION":51.8777,"RA_OF_ASC_NODE":224.1249,"ARG_OF_PERICENTER":308.8736,"MEAN_ANOMALY":51.1154,"EPHEMERIS_TYPE":0,"NORAD_CAT_ID":69618,"ELEMENT_SET_NO":999,"REV_AT_EPOCH":678,"BSTAR":0.00064041,"MEAN_MOTION_DOT":0.00024369,"MEAN_MOTION_DDOT":0},{"OBJECT_NAME":"KUIPER-00554","OBJECT_ID":"2026-140AD","EPOCH":"2026-07-23T07:31:32.531808","CLASSIFICATION_TYPE":"U","MEAN_MOTION":15.38066962,"ECCENTRICITY":0.0011591,"INCLINATION":51.8776,"RA_OF_ASC_NODE":223.8544,"ARG_OF_PERICENTER":320.7279,"MEAN_ANOMALY":39.2867,"EPHEMERIS_TYPE":0,"NORAD_CAT_ID":69619,"ELEMENT_SET_NO":999,"REV_AT_EPOCH":679,"BSTAR":0.00063028,"MEAN_MOTION_DOT":0.00023712,"MEAN_MOTION_DDOT":0},{"OBJECT_NAME":"KUIPER-00555","OBJECT_ID":"2026-140AE","EPOCH":"2026-07-23T10:35:29.402592","CLASSIFICATION_TYPE":"U","MEAN_MOTION":15.37910629,"ECCENTRICITY":0.0011281,"INCLINATION":51.8799,"RA_OF_ASC_NODE":223.2258,"ARG_OF_PERICENTER":310.2112,"MEAN_ANOMALY":49.7888,"EPHEMERIS_TYPE":0,"NORAD_CAT_ID":69620,"ELEMENT_SET_NO":999,"REV_AT_EPOCH":681,"BSTAR":0.00058451,"MEAN_MOTION_DOT":0.0002184,"MEAN_MOTION_DDOT":0},{"OBJECT_NAME":"KUIPER-00556","OBJECT_ID":"2026-140AF","EPOCH":"2026-07-23T16:00:01.998720","CLASSIFICATION_TYPE":"U","MEAN_MOTION":15.38422509,"ECCENTRICITY":0.0012247,"INCLINATION":51.879,"RA_OF_ASC_NODE":222.0916,"ARG_OF_PERICENTER":299.7164,"MEAN_ANOMALY":247.3786,"EPHEMERIS_TYPE":0,"NORAD_CAT_ID":69621,"ELEMENT_SET_NO":999,"REV_AT_EPOCH":547,"BSTAR":-0.00022185,"MEAN_MOTION_DOT":-0.00008957,"MEAN_MOTION_DDOT":0},{"OBJECT_NAME":"KUIPER-00557","OBJECT_ID":"2026-140AG","EPOCH":"2026-07-23T07:43:51.657888","CLASSIFICATION_TYPE":"U","MEAN_MOTION":15.37599766,"ECCENTRICITY":0.0010227,"INCLINATION":51.8793,"RA_OF_ASC_NODE":223.9194,"ARG_OF_PERICENTER":329.2863,"MEAN_ANOMALY":30.7525,"EPHEMERIS_TYPE":0,"NORAD_CAT_ID":69622,"ELEMENT_SET_NO":999,"REV_AT_EPOCH":679,"BSTAR":0.00065442,"MEAN_MOTION_DOT":0.0002425,"MEAN_MOTION_DDOT":0},{"OBJECT_NAME":"KUIPER-00560","OBJECT_ID":"2026-140AH","EPOCH":"2026-07-23T07:34:28.912224","CLASSIFICATION_TYPE":"U","MEAN_MOTION":15.36993577,"ECCENTRICITY":0.0009754,"INCLINATION":51.8791,"RA_OF_ASC_NODE":223.8689,"ARG_OF_PERICENTER":341.3112,"MEAN_ANOMALY":18.7515,"EPHEMERIS_TYPE":0,"NORAD_CAT_ID":69623,"ELEMENT_SET_NO":999,"REV_AT_EPOCH":679,"BSTAR":0.00068303,"MEAN_MOTION_DOT":0.00024828,"MEAN_MOTION_DDOT":0},{"OBJECT_NAME":"KUIPER-00561","OBJECT_ID":"2026-140AJ","EPOCH":"2026-07-23T13:38:41.182080","CLASSIFICATION_TYPE":"U","MEAN_MOTION":15.37249402,"ECCENTRICITY":0.0008164,"INCLINATION":51.8808,"RA_OF_ASC_NODE":222.5777,"ARG_OF_PERICENTER":338.7731,"MEAN_ANOMALY":21.2916,"EPHEMERIS_TYPE":0,"NORAD_CAT_ID":69624,"ELEMENT_SET_NO":999,"REV_AT_EPOCH":683,"BSTAR":-0.0067917,"MEAN_MOTION_DOT":-0.00244511,"MEAN_MOTION_DDOT":0},{"OBJECT_NAME":"KUIPER-00564","OBJECT_ID":"2026-140AK","EPOCH":"2026-07-23T07:41:54.053664","CLASSIFICATION_TYPE":"U","MEAN_MOTION":15.37282665,"ECCENTRICITY":0.0007317,"INCLINATION":51.8785,"RA_OF_ASC_NODE":223.9072,"ARG_OF_PERICENTER":320.3996,"MEAN_ANOMALY":39.6455,"EPHEMERIS_TYPE":0,"NORAD_CAT_ID":69625,"ELEMENT_SET_NO":999,"REV_AT_EPOCH":679,"BSTAR":0.0012271,"MEAN_MOTION_DOT":0.00045437,"MEAN_MOTION_DDOT":0},{"OBJECT_NAME":"KUIPER-00567","OBJECT_ID":"2026-140AL","EPOCH":"2026-07-23T07:19:44.279904","CLASSIFICATION_TYPE":"U","MEAN_MOTION":15.38454556,"ECCENTRICITY":0.0012956,"INCLINATION":51.8767,"RA_OF_ASC_NODE":223.7975,"ARG_OF_PERICENTER":297.8468,"MEAN_ANOMALY":62.1206,"EPHEMERIS_TYPE":0,"NORAD_CAT_ID":69626,"ELEMENT_SET_NO":999,"REV_AT_EPOCH":679,"BSTAR":0.00076823,"MEAN_MOTION_DOT":0.000294,"MEAN_MOTION_DDOT":0},{"OBJECT_NAME":"KUIPER-00573","OBJECT_ID":"2026-140AM","EPOCH":"2026-07-23T07:49:12.353088","CLASSIFICATION_TYPE":"U","MEAN_MOTION":15.37636779,"ECCENTRICITY":0.0009708,"INCLINATION":51.878,"RA_OF_ASC_NODE":223.9354,"ARG_OF_PERICENTER":317.2885,"MEAN_ANOMALY":42.7347,"EPHEMERIS_TYPE":0,"NORAD_CAT_ID":69627,"ELEMENT_SET_NO":999,"REV_AT_EPOCH":679,"BSTAR":0.00069368,"MEAN_MOTION_DOT":0.00025761,"MEAN_MOTION_DDOT":0},{"OBJECT_NAME":"KUIPER-00258","OBJECT_ID":"2026-151A","EPOCH":"2026-07-23T19:07:49.922112","CLASSIFICATION_TYPE":"U","MEAN_MOTION":15.34359696,"ECCENTRICITY":0.0010702,"INCLINATION":51.8663,"RA_OF_ASC_NODE":139.1215,"ARG_OF_PERICENTER":188.8753,"MEAN_ANOMALY":171.2045,"EPHEMERIS_TYPE":0,"NORAD_CAT_ID":69763,"ELEMENT_SET_NO":999,"REV_AT_EPOCH":333,"BSTAR":0.00081396,"MEAN_MOTION_DOT":0.00027257,"MEAN_MOTION_DDOT":0},{"OBJECT_NAME":"KUIPER-00526","OBJECT_ID":"2026-151B","EPOCH":"2026-07-23T20:00:01.999008","CLASSIFICATION_TYPE":"U","MEAN_MOTION":15.3213319,"ECCENTRICITY":0.0005538,"INCLINATION":51.8783,"RA_OF_ASC_NODE":138.6819,"ARG_OF_PERICENTER":165.9871,"MEAN_ANOMALY":167.4624,"EPHEMERIS_TYPE":0,"NORAD_CAT_ID":69764,"ELEMENT_SET_NO":999,"REV_AT_EPOCH":346,"BSTAR":-0.056314,"MEAN_MOTION_DOT":-0.01615045,"MEAN_MOTION_DDOT":0},{"OBJECT_NAME":"KUIPER-00558","OBJECT_ID":"2026-151C","EPOCH":"2026-07-23T20:00:01.999008","CLASSIFICATION_TYPE":"U","MEAN_MOTION":15.26132474,"ECCENTRICITY":0.0006803,"INCLINATION":51.8817,"RA_OF_ASC_NODE":139.021,"ARG_OF_PERICENTER":179.8534,"MEAN_ANOMALY":344.6815,"EPHEMERIS_TYPE":0,"NORAD_CAT_ID":69765,"ELEMENT_SET_NO":999,"REV_AT_EPOCH":394,"BSTAR":-0.077413,"MEAN_MOTION_DOT":-0.01821096,"MEAN_MOTION_DDOT":0},{"OBJECT_NAME":"KUIPER-00569","OBJECT_ID":"2026-151D","EPOCH":"2026-07-23T19:55:33.523104","CLASSIFICATION_TYPE":"U","MEAN_MOTION":15.37651829,"ECCENTRICITY":0.0005135,"INCLINATION":51.8784,"RA_OF_ASC_NODE":138.6136,"ARG_OF_PERICENTER":167.3253,"MEAN_ANOMALY":192.7864,"EPHEMERIS_TYPE":0,"NORAD_CAT_ID":69766,"ELEMENT_SET_NO":999,"REV_AT_EPOCH":334,"BSTAR":0.00098554,"MEAN_MOTION_DOT":0.000368,"MEAN_MOTION_DDOT":0}]}
